id,name,legal_name,kind,description,logo_url,website,linkedin_url,twitter_url,crunchbase_url,pitchbook_url,phone,email,address_line1,address_line2,city,state,postal_code,country,timezone,sector,sub_sector,stage,employee_range,parent_org_id,meta,warmth,owner_id,tags,custom_fields,internal_notes,last_contacted_at,next_follow_up_at,created_at,updated_at
549,Insight Partners,,fund,,,https://www.insightpartners.com,,,,,,,,,,,,,,Financial Services,Private Equity Firms,,,,"{""stages""=>[""Series A"", ""Series B"", ""Series C"", ""Growth"", ""Late Stage""], ""thesis""=>""Primary Venture,Growth"", ""geo_focus""=>[], ""strategies""=>[""Growth Equity""], ""sector_focus""=>[""Enterprise Software"", ""AI & Machine Learning"", ""Fintech"", ""Cybersecurity"", ""Data & Cloud Infrastructure""], ""check_max_cents""=>99900000000, ""check_min_cents""=>500000000}",0,,[],{},,,,2026-01-19 16:32:32 UTC,2026-01-19 16:32:32 UTC
550,Domain Capital,,fund,,,,,,,,,,,,,,,,,,,,,,"{""stages""=>[], ""thesis""=>""Direct Secondaries,LP Interests,Pre-IPO,Tender,Primary Venture,Buyout / Control PE,Other,Grant"", ""geo_focus""=>[], ""strategies""=>[], ""sector_focus""=>[]}",0,,[],{},,,,2026-01-19 16:32:32 UTC,2026-01-19 16:32:32 UTC
551,Banca Investis,,fund,,,,,,,,,,,,,,,,,,,,,,"{""stages""=>[], ""geo_focus""=>[], ""strategies""=>[], ""sector_focus""=>[]}",0,,"[""Capital Provider""]",{},,,,2026-01-19 16:32:32 UTC,2026-01-19 16:32:32 UTC
552,Macarther strategies,,fund,,,,,,,,,,,,,,,,,,,,,,"{""stages""=>[], ""geo_focus""=>[], ""strategies""=>[], ""sector_focus""=>[]}",0,,"[""Capital Provider""]",{},,,,2026-01-19 16:32:32 UTC,2026-01-19 16:32:32 UTC
553,Deep Journey Ventures,,fund,,,,,,,,,,,,,,,,,,,,,,"{""stages""=>[], ""geo_focus""=>[], ""strategies""=>[], ""sector_focus""=>[]}",0,,[],{},,,,2026-01-19 16:32:32 UTC,2026-01-19 16:32:32 UTC
554,DNA,,fund,,,,,,,,,,,,,,,,,,,,,,"{""stages""=>[], ""geo_focus""=>[], ""strategies""=>[], ""sector_focus""=>[]}",0,,[],{},,,,2026-01-19 16:32:32 UTC,2026-01-19 16:32:32 UTC
555,Titanium,,fund,,,,,,,,,,,,,,,,,,,,,,"{""stages""=>[], ""geo_focus""=>[], ""strategies""=>[], ""sector_focus""=>[]}",0,,[],{},,,,2026-01-19 16:32:32 UTC,2026-01-19 16:32:32 UTC
556,Access Group Holdings,,fund,,,,,,,,,,,,,,,,,,,,,,"{""stages""=>[], ""geo_focus""=>[], ""strategies""=>[], ""sector_focus""=>[]}",0,,[],{},,,,2026-01-19 16:32:32 UTC,2026-01-19 16:32:32 UTC
557,Amazon Web Services,,company,,,,,,,,,,,,,,,,,,,,,,{},0,,[],{},,,,2026-01-19 16:32:32 UTC,2026-01-19 16:32:32 UTC
558,Sumitomo Mitsui Banking Corporation,,fund,,,,,,,,,,,,,,,,,,,,,,"{""stages""=>[], ""geo_focus""=>[], ""strategies""=>[], ""sector_focus""=>[]}",0,,[],{},,,,2026-01-19 16:32:32 UTC,2026-01-19 16:32:32 UTC
559,Wells Fargo,,fund,,,,,,,,,,,,,,,,,,,,,,"{""stages""=>[], ""geo_focus""=>[], ""strategies""=>[], ""sector_focus""=>[]}",0,,[],{},,,,2026-01-19 16:32:32 UTC,2026-01-19 16:32:32 UTC
560,Wisdom VC,,fund,,,,,,,,,,,,,,,,,,,,,,"{""stages""=>[], ""geo_focus""=>[], ""strategies""=>[], ""sector_focus""=>[]}",0,,[],{},,,,2026-01-19 16:32:32 UTC,2026-01-19 16:32:32 UTC
561,Matthew Brown Companies,,fund,,,,,,,,,,,,,,,,,,,,,,"{""stages""=>[], ""geo_focus""=>[], ""strategies""=>[], ""sector_focus""=>[]}",0,,[],{},,,,2026-01-19 16:32:32 UTC,2026-01-19 16:32:32 UTC
562,Jessica Livingston,,fund,,,,,,,,,,,,,,,,,,,,,,"{""stages""=>[], ""geo_focus""=>[], ""strategies""=>[], ""sector_focus""=>[]}",0,,[],{},,,,2026-01-19 16:32:32 UTC,2026-01-19 16:32:32 UTC
563,K2 Global,,fund,,,,,,,,,,,,,,,,,,,,,,"{""stages""=>[], ""geo_focus""=>[], ""strategies""=>[], ""sector_focus""=>[]}",0,,[],{},,,,2026-01-19 16:32:32 UTC,2026-01-19 16:32:32 UTC
564,Infosys,,fund,,,,,,,,,,,,,,,,,,,,,,"{""stages""=>[], ""geo_focus""=>[], ""strategies""=>[], ""sector_focus""=>[]}",0,,[],{},,,,2026-01-19 16:32:32 UTC,2026-01-19 16:32:32 UTC
565,Tether,,company,,,,,,,,,,,,,,,,,,,,,,"{""has_rofr""=>false}",0,,[],{},,,,2026-01-19 16:32:32 UTC,2026-01-19 16:32:32 UTC
566,Polymarket,,company,,,,,,,,,,,,,,,,,,,,,,"{""has_rofr""=>false, ""last_round""=>""Series D"", ""caplight_url""=>""https://platform.caplight.com/companies/9228d779"", ""last_round_date""=>""10/7/2025"", ""valuation_cents""=>900000000000, ""total_raised_cents""=>200000000000}",0,,[],{},,,,2026-01-19 16:32:32 UTC,2026-01-19 16:32:32 UTC
567,mCards,,company,,,,,,,,,,,,,,,,,,,,,,"{""has_rofr""=>false}",0,,[],{},,,,2026-01-19 16:32:32 UTC,2026-01-19 16:32:32 UTC
568,Databricks,,company,,,,,,,,,,,,,,,,,Data & Cloud Infrastructure,,,,,"{""has_rofr""=>false, ""last_round""=>""Series K"", ""caplight_url""=>""https://platform.caplight.com/companies/cdd8b923"", ""last_round_date""=>""9/8/2025"", ""valuation_cents""=>10000000000000, ""total_raised_cents""=>100000000000}",0,,[],{},,,,2026-01-19 16:32:32 UTC,2026-01-19 16:32:32 UTC
569,Arrow Fund Holdings LLC,,spv,,,,,,,,,,,,,,,,,,,,,,{},0,,"[""Internal Entity""]",{},,,,2026-01-19 16:32:32 UTC,2026-01-19 16:32:32 UTC
570,Arrow Fund Holdings LLC - Arrow Fund Holdings S4 LLC,,spv,,,,,,,,,,,,,,,,,,,,,,{},0,,"[""Internal Entity""]",{},,,,2026-01-19 16:32:32 UTC,2026-01-19 16:32:32 UTC
571,otala.markets,,fund,,,,,,,,,,,,,,,,,,,,,,"{""stages""=>[], ""geo_focus""=>[], ""strategies""=>[], ""sector_focus""=>[]}",0,,[],{},,,,2026-01-19 16:32:32 UTC,2026-01-19 16:32:32 UTC
572,GHC Housing Partners,,fund,,,,,,,,,,,,,,,,,,,,,,"{""stages""=>[], ""geo_focus""=>[], ""strategies""=>[], ""sector_focus""=>[]}",0,,[],{},,,,2026-01-19 16:32:32 UTC,2026-01-19 16:32:32 UTC
573,Velvet Ventures,,fund,,,https://www.velvet.vc/,https://www.linkedin.com/company/velvetvc/,,,,,,,,,,,,,,,,,,"{""stages""=>[], ""geo_focus""=>[], ""strategies""=>[], ""sector_focus""=>[]}",0,,[],{},,,,2026-01-19 16:32:32 UTC,2026-01-19 16:32:32 UTC
574,SGH Capital,,fund,,,https://www.linkedin.com/company/sghcapital/,https://www.sghcapital.com/,,,,,,,,,,,,,,,,,,"{""stages""=>[], ""geo_focus""=>[], ""strategies""=>[], ""sector_focus""=>[]}",0,,"[""Capital Provider""]",{},,,,2026-01-19 16:32:32 UTC,2026-01-19 16:32:32 UTC
575,Accrete Capital,,fund,,,https://www.accretecap.com/,https://www.linkedin.com/company/accreteholdings/,,,,,,,,,,,,,,,,,,"{""stages""=>[], ""geo_focus""=>[], ""strategies""=>[], ""sector_focus""=>[]}",0,,"[""Warehouse Lender""]",{},,,,2026-01-19 16:32:32 UTC,2026-01-19 16:32:32 UTC
576,Owl Mountain Studios,,company,,,https://owlmountainstudios.com/,https://www.linkedin.com/company/owl-mountain-studios/,,,,,,,,,,,,,Telecommunications & Networking,,,,,{},0,,[],{},,,,2026-01-19 16:32:32 UTC,2026-01-19 16:32:32 UTC
577,Lyndhurst Financial Corporation,,fund,,,https://lyndhurstfm.co.uk/our-services/,https://www.linkedin.com/company/lyndhurst-financial-management-ltd/,,,,,,,,,,,,,,,,,,"{""stages""=>[], ""geo_focus""=>[], ""strategies""=>[], ""sector_focus""=>[]}",0,,[],{},,,,2026-01-19 16:32:32 UTC,2026-01-19 16:32:32 UTC
578,Flux Capital,,fund,,,,,,,,,,,,,,,,,,,,,,"{""stages""=>[], ""geo_focus""=>[], ""strategies""=>[], ""sector_focus""=>[]}",0,,[],{},,,,2026-01-19 16:32:32 UTC,2026-01-19 16:32:32 UTC
579,Big Idea Ventures,,fund,,,,,,,,,,,,,,,,,,,,,,"{""stages""=>[], ""geo_focus""=>[], ""strategies""=>[], ""sector_focus""=>[]}",0,,[],{},,,,2026-01-19 16:32:32 UTC,2026-01-19 16:32:32 UTC
580,Kells Capital,,fund,,,https://kellscapital.com/,https://www.linkedin.com/company/kells-capital-partners-llc/,,,,,,,,,,,,,,,,,,"{""stages""=>[], ""geo_focus""=>[], ""strategies""=>[], ""sector_focus""=>[]}",0,,"[""Capital Provider""]",{},,,,2026-01-19 16:32:32 UTC,2026-01-19 16:32:32 UTC
581,VorQuant Capital Management,,fund,,,,,,,,,,,,,,,,,,,,,,"{""stages""=>[], ""geo_focus""=>[], ""strategies""=>[], ""sector_focus""=>[]}",0,,[],{},,,,2026-01-19 16:32:32 UTC,2026-01-19 16:32:32 UTC
582,EF7,,fund,,,,,,,,,,,,,,,,,,,,,,"{""stages""=>[], ""geo_focus""=>[], ""strategies""=>[], ""sector_focus""=>[]}",0,,[],{},,,,2026-01-19 16:32:32 UTC,2026-01-19 16:32:32 UTC
583,Archax,,fund,,,,,,,,,,,,,,,,,,,,,,"{""stages""=>[], ""geo_focus""=>[], ""strategies""=>[], ""sector_focus""=>[]}",0,,[],{},,,,2026-01-19 16:32:32 UTC,2026-01-19 16:32:32 UTC
584,Singularity Access,,fund,,,,,,,,,,,,,,,,,,,,,,"{""stages""=>[], ""geo_focus""=>[], ""strategies""=>[], ""sector_focus""=>[]}",0,,[],{},,,,2026-01-19 16:32:32 UTC,2026-01-19 16:32:32 UTC
585,PARCREST,,fund,,,,,,,,,,,,,,,,,,,,,,"{""stages""=>[], ""geo_focus""=>[], ""strategies""=>[], ""sector_focus""=>[]}",0,,[],{},,,,2026-01-19 16:32:32 UTC,2026-01-19 16:32:32 UTC
586,Decheque Securities,,fund,,,,,,,,,,,,,,,,,,,,,,"{""stages""=>[], ""geo_focus""=>[], ""strategies""=>[], ""sector_focus""=>[]}",0,,[],{},,,,2026-01-19 16:32:32 UTC,2026-01-19 16:32:32 UTC
587,The House Fund,,fund,,,https://www.thehouse.fund/,https://www.linkedin.com/company/the-house-fund/,,,,,,,,,,,,,,,,,,"{""stages""=>[], ""geo_focus""=>[], ""strategies""=>[], ""sector_focus""=>[]}",0,,[],{},,,,2026-01-19 16:32:32 UTC,2026-01-19 16:32:32 UTC
588,Avidor Capital Partners,,fund,,,,,,,,,,,,,,,,,,,,,,"{""stages""=>[], ""geo_focus""=>[], ""strategies""=>[], ""sector_focus""=>[]}",0,,[],{},,,,2026-01-19 16:32:32 UTC,2026-01-19 16:32:32 UTC
589,Stiiizy,,company,,,,,,,,,,,,,,,,,Cannabis,Cannabis Oil,,,,{},0,,[],{},,,,2026-01-19 16:32:32 UTC,2026-01-19 16:32:32 UTC
590,Goldman Sachs,,fund,,,,,,,,,,,,,,,,,,,,,,"{""stages""=>[], ""geo_focus""=>[], ""strategies""=>[], ""sector_focus""=>[]}",0,,[],{},,,,2026-01-19 16:32:32 UTC,2026-01-19 16:32:32 UTC
591,Aloniq,,fund,,,https://www.aloniq.com/,,,,,,,,,,,,,,Financial Services,,,,,"{""stages""=>[""Pre-Seed"", ""Seed"", ""Series A""], ""geo_focus""=>[], ""strategies""=>[], ""sector_focus""=>[]}",0,23,[],{},,,,2026-01-19 16:32:32 UTC,2026-01-19 16:32:32 UTC
592,8-Bit Capital,,fund,,,,,,,,,,,,,,,,,,,,,,"{""stages""=>[], ""geo_focus""=>[], ""strategies""=>[], ""sector_focus""=>[]}",0,,[],{},,,,2026-01-19 16:32:32 UTC,2026-01-19 16:32:32 UTC
593,Troy Capital,,fund,,,https://www.troycapitalpartners.com/,,,,,,,,,,,,,,,,,,,"{""stages""=>[], ""geo_focus""=>[], ""strategies""=>[], ""sector_focus""=>[]}",0,,[],{},,,,2026-01-19 16:32:32 UTC,2026-01-19 16:32:32 UTC
594,Farro Capital,,fund,,,,,,,,,,,,,,,,,,,,,,"{""stages""=>[], ""geo_focus""=>[], ""strategies""=>[], ""sector_focus""=>[]}",0,,"[""Capital Provider""]",{},,,,2026-01-19 16:32:32 UTC,2026-01-19 16:32:32 UTC
595,Arcadian Capital,,fund,,,https://www.arcadiancap.com/,https://www.linkedin.com/company/arcadiancap/posts/?feedView=all,,,,,,,,,,,,,,,,,,"{""stages""=>[], ""geo_focus""=>[], ""strategies""=>[], ""sector_focus""=>[]}",0,,[],{},,,,2026-01-19 16:32:32 UTC,2026-01-19 16:32:32 UTC
596,Plug and Play,,fund,,,,,,,,,,,,,,,,,,,,,,"{""stages""=>[], ""geo_focus""=>[], ""strategies""=>[], ""sector_focus""=>[]}",0,,[],{},,,,2026-01-19 16:32:32 UTC,2026-01-19 16:32:32 UTC
597,Prometheus Alternative Investments,,fund,,,,,,,,,,,,,,,,,,,,,,"{""stages""=>[], ""geo_focus""=>[], ""strategies""=>[], ""sector_focus""=>[]}",0,,[],{},,,,2026-01-19 16:32:32 UTC,2026-01-19 16:32:32 UTC
598,tZERO Group,,fund,,,,,,,,,,,,,,,,,,,,,,"{""stages""=>[], ""geo_focus""=>[], ""strategies""=>[], ""sector_focus""=>[]}",0,,[],{},,,,2026-01-19 16:32:32 UTC,2026-01-19 16:32:32 UTC
599,Tides Ventures,,fund,,,,,,,,,,,,,,,,,,,,,,"{""stages""=>[], ""geo_focus""=>[], ""strategies""=>[], ""sector_focus""=>[]}",0,,[],{},,,,2026-01-19 16:32:32 UTC,2026-01-19 16:32:32 UTC
600,Humanoid Robotics Fund,,fund,,,,,,,,,,,,,,,,,,,,,,"{""stages""=>[], ""geo_focus""=>[], ""strategies""=>[], ""sector_focus""=>[]}",0,,[],{},,,,2026-01-19 16:32:32 UTC,2026-01-19 16:32:32 UTC
601,Molten Ventures,,fund,,,https://www.moltenventures.com,,,,,,,,,,,,,,Financial Services,Venture Capital Firms,,,,"{""stages""=>[""Seed"", ""Series A"", ""Series B"", ""Series C"", ""Growth""], ""thesis""=>""Primary Venture,Growth"", ""geo_focus""=>[], ""strategies""=>[], ""sector_focus""=>[""AI & Machine Learning"", ""Enterprise Software"", ""Fintech"", ""Data & Cloud Infrastructure"", ""Biotechnology & Life Sciences"", ""Healthcare Services & IT""], ""check_max_cents""=>10000000000, ""check_min_cents""=>100000000}",0,,[],{},,,,2026-01-19 16:32:32 UTC,2026-01-19 16:32:32 UTC
602,Humla,,fund,,,https://www.humla.vc/,https://www.linkedin.com/company/humla-ab/,,,,,,,,,,,,,,,,,,"{""stages""=>[], ""geo_focus""=>[], ""strategies""=>[], ""sector_focus""=>[]}",0,,[],{},,,,2026-01-19 16:32:32 UTC,2026-01-19 16:32:32 UTC
603,Lydian,,fund,,,,,,,,,,,,,,,,,,,,,,"{""stages""=>[], ""geo_focus""=>[], ""strategies""=>[], ""sector_focus""=>[]}",0,,[],{},,,,2026-01-19 16:32:32 UTC,2026-01-19 16:32:32 UTC
604,Cantor Fitzgerald,,fund,,,,,,,,,,,,,,,,,,,,,,"{""stages""=>[], ""geo_focus""=>[], ""strategies""=>[], ""sector_focus""=>[]}",0,,[],{},,,,2026-01-19 16:32:32 UTC,2026-01-19 16:32:32 UTC
605,GS Capital Partners,,fund,,,,,,,,,,,,,,,,,,,,,,"{""stages""=>[], ""geo_focus""=>[], ""strategies""=>[], ""sector_focus""=>[]}",0,,[],{},,,,2026-01-19 16:32:32 UTC,2026-01-19 16:32:32 UTC
606,VU Venture Partners,,fund,,,,,,,,,,,,,,,,,,,,,,"{""stages""=>[], ""geo_focus""=>[], ""strategies""=>[], ""sector_focus""=>[]}",0,,[],{},,,,2026-01-19 16:32:32 UTC,2026-01-19 16:32:32 UTC
607,Seed Healthcare,,fund,,,,,,,,,,,,,,,,,,,,,,"{""stages""=>[], ""geo_focus""=>[], ""strategies""=>[], ""sector_focus""=>[]}",0,,[],{},,,,2026-01-19 16:32:32 UTC,2026-01-19 16:32:32 UTC
608,Cuatro Capital,,fund,,,,,,,,,,,,,,,,,,,,,,"{""stages""=>[], ""geo_focus""=>[], ""strategies""=>[], ""sector_focus""=>[]}",0,,[],{},,,,2026-01-19 16:32:32 UTC,2026-01-19 16:32:32 UTC
609,Varys Capital,,fund,,,,,,,,,,,,,,,,,,,,,,"{""stages""=>[], ""geo_focus""=>[], ""strategies""=>[], ""sector_focus""=>[]}",0,,[],{},,,,2026-01-19 16:32:32 UTC,2026-01-19 16:32:32 UTC
610,Impacts Capital,,fund,,,,,,,,,,,,,,,,,,,,,,"{""stages""=>[], ""geo_focus""=>[], ""strategies""=>[], ""sector_focus""=>[]}",0,,[],{},,,,2026-01-19 16:32:32 UTC,2026-01-19 16:32:32 UTC
611,ArkStream Capital,,fund,,,,,,,,,,,,,,,,,,,,,,"{""stages""=>[], ""geo_focus""=>[], ""strategies""=>[], ""sector_focus""=>[""Crypto & Web3""]}",0,,"[""Capital Provider""]",{},,,,2026-01-19 16:32:32 UTC,2026-01-19 16:32:32 UTC
612,Vannevar Ventures,,fund,,,,,,,,,,,,,,,,,,,,,,"{""stages""=>[], ""geo_focus""=>[], ""strategies""=>[], ""sector_focus""=>[]}",0,,[],{},,,,2026-01-19 16:32:32 UTC,2026-01-19 16:32:32 UTC
613,Tidal Frontier Investment,,fund,,,,,,,,,,,,,,,,,,,,,,"{""stages""=>[], ""geo_focus""=>[], ""strategies""=>[], ""sector_focus""=>[]}",0,,"[""Capital Provider""]",{},,,,2026-01-19 16:32:32 UTC,2026-01-19 16:32:32 UTC
614,ATMA Partners,,fund,,,,,,,,,,,,,,,,,,,,,,"{""stages""=>[], ""geo_focus""=>[], ""strategies""=>[], ""sector_focus""=>[]}",0,,"[""Capital Provider""]",{},,,,2026-01-19 16:32:32 UTC,2026-01-19 16:32:32 UTC
615,LeVecke Corporation,,company,,,,,,,,,,,,,,,,,,,,,,"{""has_rofr""=>false}",0,,[],{},,,,2026-01-19 16:32:32 UTC,2026-01-19 16:32:32 UTC
616,Ledger,,company,,,,,,,,,,,,,,,,,,,,,,"{""has_rofr""=>false}",0,,[],{},,,,2026-01-19 16:32:32 UTC,2026-01-19 16:32:32 UTC
617,Arca,,company,,,,,,,,,,,,,,,,,,,,,,"{""has_rofr""=>false}",0,,[],{},,,,2026-01-19 16:32:32 UTC,2026-01-19 16:32:32 UTC
618,Din Tai Fung,,company,,,,,,,,,,,,,,,,,,,,,,"{""has_rofr""=>false}",0,,[],{},,,,2026-01-19 16:32:32 UTC,2026-01-19 16:32:32 UTC
619,Glimmer,,company,,,,,,,,,,,,,,,,,,,,,,"{""has_rofr""=>false}",0,,[],{},,,,2026-01-19 16:32:32 UTC,2026-01-19 16:32:32 UTC
620,Alkeme Insurance,,company,,,,,,,,,,,,,,,,,,,,,,"{""has_rofr""=>false}",0,,[],{},,,,2026-01-19 16:32:32 UTC,2026-01-19 16:32:32 UTC
621,RT Specialty,,company,,,,,,,,,,,,,,,,,,,,,,"{""has_rofr""=>false}",0,,[],{},,,,2026-01-19 16:32:32 UTC,2026-01-19 16:32:32 UTC
622,Norfolk Southern,,company,,,,,,,,,,,,,,,,,,,,,,"{""has_rofr""=>false}",0,,[],{},,,,2026-01-19 16:32:32 UTC,2026-01-19 16:32:32 UTC
623,Ricardo Food Group,,company,,,,,,,,,,,,,,,,,,,,,,"{""has_rofr""=>false}",0,,[],{},,,,2026-01-19 16:32:32 UTC,2026-01-19 16:32:32 UTC
624,AgriNovus Indiana,,company,,,,,,,,,,,,,,,,,,,,,,"{""has_rofr""=>false}",0,,[],{},,,,2026-01-19 16:32:32 UTC,2026-01-19 16:32:32 UTC
625,Valar Atomics,,company,,,,,,,,,,,,,,,,,,,,,,"{""has_rofr""=>false}",0,,[],{},,,,2026-01-19 16:32:32 UTC,2026-01-19 16:32:32 UTC
626,Alix Ventures,,fund,,,,,,,,,,,,,,,,,,,,,,{},0,,[],{},,,,2026-01-19 16:32:32 UTC,2026-01-19 16:32:32 UTC
627,Janey,,fund,,,,,,,,,,,,,,,,,,,,,,{},0,,[],{},,,,2026-01-19 16:32:32 UTC,2026-01-19 16:32:32 UTC
628,Archer Capital Group,,fund,,,,,,,,,,,,,,,,,,,,,,{},0,,[],{},,,,2026-01-19 16:32:32 UTC,2026-01-19 16:32:32 UTC
629,I.D.I.T Family Office,,fund,,,,,,,,,,,,,,,,,,,,,,{},0,,[],{},,,,2026-01-19 16:32:32 UTC,2026-01-19 16:32:32 UTC
630,Stableton,,fund,,,,,,,,,,,,,,,,,,,,,,{},0,,[],{},,,,2026-01-19 16:32:32 UTC,2026-01-19 16:32:32 UTC
631,ACTON,,fund,,,,,,,,,,,,,,,,,,,,,,{},0,,[],{},,,,2026-01-19 16:32:32 UTC,2026-01-19 16:32:32 UTC
632,Corhaven Properties,,fund,,,,,,,,,,,,,,,,,,,,,,{},0,,[],{},,,,2026-01-19 16:32:32 UTC,2026-01-19 16:32:32 UTC
633,AG Venture Capital,,fund,,,,https://www.linkedin.com/company/ag-vc/,,,,,,,,,,,,,,,,,,{},0,,[],{},,,,2026-01-19 16:32:32 UTC,2026-01-19 16:32:32 UTC
634,Sydecar,,fund,,,,,,,,,,,,,,,,,,,,,,{},0,,[],{},,,,2026-01-19 16:32:32 UTC,2026-01-19 16:32:32 UTC
635,Hedgebay Securities,,broker,,,,,,,,,,,,,,,,,,,,,,{},0,,"[""Block Holder / Seller,Intermediary / Broker""]",{},,,,2026-01-19 16:32:32 UTC,2026-01-19 16:32:32 UTC
636,OpenAI,,company,,,https://www.openai.com,,,,,,,,,San Francisco,,,,,AI & Machine Learning,,,,,"{""has_rofr""=>false, ""last_round""=>""Tender"", ""caplight_url""=>""https://platform.caplight.com/companies/8bcd1278"", ""last_round_date""=>""10/2/2025"", ""valuation_cents""=>50000000000000, ""total_raised_cents""=>660000000000}",0,,[],{},,,,2026-01-19 16:32:32 UTC,2026-01-19 16:32:32 UTC
637,SpaceX,,company,,,https://www.spacex.com,,,,,,,,,Hawthorne,,,,,Frontier Technology,,,,,"{""has_rofr""=>false, ""last_round""=>""Tender"", ""caplight_url""=>""https://platform.caplight.com/companies/e367e38b"", ""last_round_date""=>""12/10/2024"", ""valuation_cents""=>35000000000000, ""total_raised_cents""=>125000000000}",0,,[],{},,,,2026-01-19 16:32:32 UTC,2026-01-19 16:32:32 UTC
638,ByteDance,,company,,,https://www.bytedance.com,,,,,,,,,,,,China,,Media & Entertainment,,,,,"{""has_rofr""=>false, ""last_round""=>""Tender"", ""caplight_url""=>""https://platform.caplight.com/companies/8f1c4673"", ""last_round_date""=>""10/11/2025"", ""valuation_cents""=>33000000000000}",0,,[],{},,,,2026-01-19 16:32:32 UTC,2026-01-19 16:32:32 UTC
639,Ant Group,,company,,,https://www.antgroup.com,,,,,,,,,,,,China,,Fintech,,,,,"{""has_rofr""=>false, ""last_round""=>""Series D"", ""caplight_url""=>""https://platform.caplight.com/companies/188d4a0b"", ""last_round_date""=>""2/9/2021"", ""valuation_cents""=>31300000000000}",0,,[],{},,,,2026-01-19 16:32:32 UTC,2026-01-19 16:32:32 UTC
640,Anthropic,,company,,,https://www.anthropic.com,,,,,,,,,San Francisco,,,,,AI & Machine Learning,,,,,"{""has_rofr""=>false, ""last_round""=>""Series F"", ""caplight_url""=>""https://platform.caplight.com/companies/fc90654f"", ""last_round_date""=>""9/2/2025"", ""valuation_cents""=>18300000000000, ""total_raised_cents""=>1300000000000}",0,,[],{},,,,2026-01-19 16:32:32 UTC,2026-01-19 16:32:32 UTC
641,Stripe,,company,,,https://www.stripe.com,,,,,,,,,San Francisco,,,,,Fintech,,,,,"{""has_rofr""=>false, ""last_round""=>""Tender"", ""caplight_url""=>""https://platform.caplight.com/companies/38048685"", ""last_round_date""=>""2/27/2025"", ""valuation_cents""=>9150000000000}",0,,[],{},,,,2026-01-19 16:32:32 UTC,2026-01-19 16:32:32 UTC
642,Revolut,,company,,,https://www.revolut.com,,,,,,,,,United Kingdom,,,,,Fintech,,,,,"{""has_rofr""=>false, ""last_round""=>""Tender"", ""caplight_url""=>""https://platform.caplight.com/companies/1a2d94f7"", ""last_round_date""=>""11/24/2025"", ""valuation_cents""=>7500000000000}",0,,[],{},,,,2026-01-19 16:32:32 UTC,2026-01-19 16:32:32 UTC
643,SHEIN,,company,,,https://www.sheingroup.com,,,,,,,,,Singapore,,,,,"Consumer & Retail,E-commerce",,,,,"{""has_rofr""=>false, ""last_round""=>""Series G"", ""caplight_url""=>""https://platform.caplight.com/companies/e1f1b7b3"", ""last_round_date""=>""5/17/2023"", ""valuation_cents""=>6700000000000, ""total_raised_cents""=>200000000000}",0,,[],{},,,,2026-01-19 16:32:32 UTC,2026-01-19 16:32:32 UTC
644,Canva,,company,,,https://www.canva.com,,,,,,,,,,,,Australia,,Enterprise Software,,,,,"{""has_rofr""=>false, ""last_round""=>""Tender"", ""caplight_url""=>""https://platform.caplight.com/companies/3b024c35"", ""last_round_date""=>""8/20/2025"", ""valuation_cents""=>4200000000000}",0,,[],{},,,,2026-01-19 16:32:32 UTC,2026-01-19 16:32:32 UTC
645,Checkout,,company,,,https://www.checkout.com,,,,,,,,,United Kingdom,,,,,Fintech,,,,,"{""has_rofr""=>false, ""last_round""=>""Series D"", ""caplight_url""=>""https://platform.caplight.com/companies/a64c9b46"", ""last_round_date""=>""1/12/2022"", ""valuation_cents""=>4000000000000, ""total_raised_cents""=>100000000000}",0,,[],{},,,,2026-01-19 16:32:32 UTC,2026-01-19 16:32:32 UTC
646,Ripple,,company,,,https://www.ripple.com,,,,,,,,,San Francisco,,,,,Fintech,,,,,"{""has_rofr""=>false, ""last_round""=>""Growth Equity"", ""caplight_url""=>""https://platform.caplight.com/companies/43f5dada"", ""last_round_date""=>""11/5/2025"", ""valuation_cents""=>4000000000000, ""total_raised_cents""=>50000000000}",0,,[],{},,,,2026-01-19 16:32:32 UTC,2026-01-19 16:32:32 UTC
647,Figure AI,,company,,,https://www.figure.ai,,,,,,,,,San Jose,,,,,Frontier Technology,Robotics,,,,"{""has_rofr""=>false, ""last_round""=>""Series C"", ""caplight_url""=>""https://platform.caplight.com/companies/2f408b2f"", ""last_round_date""=>""2/17/2025"", ""valuation_cents""=>3950000000000, ""total_raised_cents""=>150000000000}",0,,[],{},,,,2026-01-19 16:32:32 UTC,2026-01-19 16:32:32 UTC
648,Ramp,,company,,,https://www.ramp.com,,,,,,,,,New York,,,,,Fintech,,,,,"{""has_rofr""=>false, ""last_round""=>""Series E Extension"", ""caplight_url""=>""https://platform.caplight.com/companies/c56bd9eb"", ""last_round_date""=>""11/17/2025"", ""valuation_cents""=>3200000000000, ""total_raised_cents""=>30000000000}",0,,[],{},,,,2026-01-19 16:32:32 UTC,2026-01-19 16:32:32 UTC
649,Anduril,,company,,,https://www.anduril.com,,,,,,,,,Costa Mesa,,,,,Frontier Technology,,,,,"{""has_rofr""=>false, ""last_round""=>""Series G"", ""caplight_url""=>""https://platform.caplight.com/companies/3316d3f7"", ""last_round_date""=>""2/8/2025"", ""valuation_cents""=>3050000000000, ""total_raised_cents""=>250000000000}",0,,[],{},,,,2026-01-19 16:32:32 UTC,2026-01-19 16:32:32 UTC
650,Anysphere,,company,,,https://www.anysphere.inc,,,,,,,,,San Francisco,,,,,AI & Machine Learning,,,,,"{""has_rofr""=>false, ""last_round""=>""Series D"", ""caplight_url""=>""https://platform.caplight.com/companies/f2e8ebc5"", ""last_round_date""=>""11/13/2025"", ""valuation_cents""=>2930000000000, ""total_raised_cents""=>230000000000}",0,,[],{},,,,2026-01-19 16:32:32 UTC,2026-01-19 16:32:32 UTC
651,Scale,,company,,,https://www.scale.com,,,,,,,,,San Francisco,,,,,AI & Machine Learning,,,,,"{""has_rofr""=>false, ""last_round""=>""Series G"", ""caplight_url""=>""https://platform.caplight.com/companies/e72968a5"", ""last_round_date""=>""6/10/2025"", ""valuation_cents""=>2900000000000, ""total_raised_cents""=>1430000000000}",0,,[],{},,,,2026-01-19 16:32:32 UTC,2026-01-19 16:32:32 UTC
652,Alliant Insurance Services,,company,,,https://www.alliant.com,,,,,,,,,Irvine,,,,,Fintech,,,,,"{""has_rofr""=>false, ""last_round""=>""Growth Equity"", ""caplight_url""=>""https://platform.caplight.com/companies/0ead7a07"", ""last_round_date""=>""10/25/2022"", ""valuation_cents""=>2675000000000}",0,,[],{},,,,2026-01-19 16:32:32 UTC,2026-01-19 16:32:32 UTC
653,Fanatics,,company,,,https://www.fanaticsinc.com,,,,,,,,,New York City,New York,,,,"Consumer & Retail,E-commerce",,,,,"{""has_rofr""=>false, ""last_round""=>""Tender"", ""caplight_url""=>""https://platform.caplight.com/companies/4735ff33"", ""last_round_date""=>""9/5/2024"", ""valuation_cents""=>2500000000000, ""total_raised_cents""=>10000000000}",0,,[],{},,,,2026-01-19 16:32:32 UTC,2026-01-19 16:32:32 UTC
654,Epic Games,,company,,,https://www.epicgames.com,,,,,,,,,Cary,North Carolina,,,,Gaming & Esports,,,,,"{""has_rofr""=>false, ""last_round""=>""Strategic"", ""caplight_url""=>""https://platform.caplight.com/companies/4830f55e"", ""last_round_date""=>""9/30/2024"", ""valuation_cents""=>2250000000000, ""total_raised_cents""=>150000000000}",0,,[],{},,,,2026-01-19 16:32:32 UTC,2026-01-19 16:32:32 UTC
655,Yangtze Memory Technologies Corp.,,company,,,http://www.ymtc.com,,,,,,,,,Wuhan,China,,,,,,,,,"{""has_rofr""=>false, ""last_round""=>""Strategic"", ""caplight_url""=>""https://platform.caplight.com/companies/d27e3955"", ""last_round_date""=>""4/26/2025"", ""valuation_cents""=>2230000000000, ""total_raised_cents""=>130000000000}",0,,[],{},,,,2026-01-19 16:32:32 UTC,2026-01-19 16:32:32 UTC
656,Bloomberg L.P.,,company,,,https://www.bloomberg.com,,,,,,,,,New York City,New York,,,,,,,,,"{""has_rofr""=>false, ""last_round""=>""Buyout/LBO"", ""caplight_url""=>""https://platform.caplight.com/companies/c02564a3"", ""last_round_date""=>""7/17/2008"", ""valuation_cents""=>2212500000000, ""total_raised_cents""=>442500000000}",0,,[],{},,,,2026-01-19 16:32:32 UTC,2026-01-19 16:32:32 UTC
657,Visma,,company,,,https://www.visma.com,,,,,,,,,Norway,,,,,Enterprise Software,,,,,"{""has_rofr""=>false, ""last_round""=>""Secondary"", ""caplight_url""=>""https://platform.caplight.com/companies/e5946a65"", ""last_round_date""=>""12/21/2023"", ""valuation_cents""=>2100000000000}",0,,[],{},,,,2026-01-19 16:32:32 UTC,2026-01-19 16:32:32 UTC
658,ChangXin Memory Technologies,,company,,,https://www.cxmt.com,,,,,,,,,Hefei,China,,,,,,,,,"{""has_rofr""=>false, ""last_round""=>""Strategic"", ""caplight_url""=>""https://platform.caplight.com/companies/3125c60f"", ""last_round_date""=>""3/31/2024"", ""valuation_cents""=>2100000000000, ""total_raised_cents""=>150000000000}",0,,[],{},,,,2026-01-19 16:32:32 UTC,2026-01-19 16:32:32 UTC
659,WeBank,,company,,,https://www.webank.com,,,,,,,,,,,,China,,Fintech,,,,,"{""has_rofr""=>false, ""last_round""=>""Growth Equity"", ""caplight_url""=>""https://platform.caplight.com/companies/fd5c193a"", ""last_round_date""=>""3/1/2018"", ""valuation_cents""=>2100000000000, ""total_raised_cents""=>100000000000}",0,,[],{},,,,2026-01-19 16:32:32 UTC,2026-01-19 16:32:32 UTC
660,Kraken,,company,,,https://www.kraken.com,,,,,,,,,San Francisco,,,,,Crypto & Web3,,,,,"{""has_rofr""=>false, ""last_round""=>""Strategic"", ""caplight_url""=>""https://platform.caplight.com/companies/6e6ece9f"", ""last_round_date""=>""11/18/2025"", ""valuation_cents""=>2000000000000, ""total_raised_cents""=>20000000000}",0,,[],{},,,,2026-01-19 16:32:32 UTC,2026-01-19 16:32:32 UTC
661,Perplexity,,company,,,https://www.perplexity.ai,,,,,,,,,San Francisco,,,,,AI & Machine Learning,,,,,"{""has_rofr""=>false, ""last_round""=>""Series E Extention"", ""caplight_url""=>""https://platform.caplight.com/companies/4dfc3ad0"", ""last_round_date""=>""9/11/2025"", ""valuation_cents""=>2000000000000, ""total_raised_cents""=>20000000000}",0,,[],{},,,,2026-01-19 16:32:32 UTC,2026-01-19 16:32:32 UTC
662,Authentic Brands Group,,company,,,https://www.authentic.com,,,,,,,,,New York City,New York,,,,,,,,,"{""has_rofr""=>false, ""last_round""=>""Growth Equity"", ""last_round_date""=>""6/29/2023"", ""valuation_cents""=>2000000000000, ""total_raised_cents""=>50000000000}",0,,[],{},,,,2026-01-19 16:32:32 UTC,2026-01-19 16:32:32 UTC
663,Miro,,company,,,https://www.miro.com,,,,,,,,,San Francisco,,,,,Enterprise Software,,,,,"{""has_rofr""=>false, ""last_round""=>""Series C"", ""caplight_url""=>""https://platform.caplight.com/companies/3312907e"", ""last_round_date""=>""1/5/2022"", ""valuation_cents""=>1750000000000, ""total_raised_cents""=>40000000000}",0,,[],{},,,,2026-01-19 16:32:32 UTC,2026-01-19 16:32:32 UTC
664,Deel,,company,,,https://www.deel.com,,,,,,,,,San Francisco,,,,,Enterprise Software,,,,,"{""has_rofr""=>false, ""last_round""=>""Series E"", ""caplight_url""=>""https://platform.caplight.com/companies/b7b73fba"", ""last_round_date""=>""10/16/2025"", ""valuation_cents""=>1730000000000, ""total_raised_cents""=>30000000000}",0,,[],{},,,,2026-01-19 16:32:32 UTC,2026-01-19 16:32:32 UTC
665,Zelis,,company,,,https://zelis.com,,,,,,,,,Boston,Massachusetts,,,,,,,,,"{""has_rofr""=>false, ""last_round""=>""Private Equity"", ""caplight_url""=>""https://platform.caplight.com/companies/d15c3e8a"", ""last_round_date""=>""11/26/2024"", ""valuation_cents""=>1700000000000}",0,,[],{},,,,2026-01-19 16:32:32 UTC,2026-01-19 16:32:32 UTC
666,Xiaohongshu,,company,,,,,,,,,,,,,,,,,,,,,,"{""has_rofr""=>false}",0,,[],{},,,,2026-01-19 16:32:32 UTC,2026-01-19 16:32:32 UTC
667,Rippling,,company,,,https://www.rippling.com,,,,,,,,,San Francisco,,,,,Enterprise Software,,,,,"{""has_rofr""=>false, ""last_round""=>""Series G"", ""caplight_url""=>""https://platform.caplight.com/companies/5278f57f"", ""last_round_date""=>""5/9/2025"", ""valuation_cents""=>1680000000000, ""total_raised_cents""=>45000000000}",0,,[],{},,,,2026-01-19 16:32:32 UTC,2026-01-19 16:32:32 UTC
668,Yuanfudao,,company,,,https://www.yuanfudao.com,,,,,,,,,,,,China,,Enterprise Software,,,,,"{""has_rofr""=>false, ""last_round""=>""Series G"", ""caplight_url""=>""https://platform.caplight.com/companies/2e522477"", ""last_round_date""=>""10/22/2020"", ""valuation_cents""=>1550000000000, ""total_raised_cents""=>220000000000}",0,,[],{},,,,2026-01-19 16:32:32 UTC,2026-01-19 16:32:32 UTC
669,Discord,,company,,,https://www.discord.com,,,,,,,,,San Francisco,,,,,Media & Entertainment,,,,,"{""has_rofr""=>false, ""last_round""=>""Series I"", ""caplight_url""=>""https://platform.caplight.com/companies/fcbde06a"", ""last_round_date""=>""9/9/2021"", ""valuation_cents""=>1500000000000, ""total_raised_cents""=>50000000000}",0,,[],{},,,,2026-01-19 16:32:32 UTC,2026-01-19 16:32:32 UTC
670,DJI,,company,,,https://www.dji.com,,,,,,,,,,,,China,,Frontier Technology,,,,,"{""has_rofr""=>false, ""last_round""=>""Corporate Funding"", ""caplight_url""=>""https://platform.caplight.com/companies/321a48b7"", ""last_round_date""=>""5/16/2018"", ""valuation_cents""=>1500000000000, ""total_raised_cents""=>100000000000}",0,,[],{},,,,2026-01-19 16:32:32 UTC,2026-01-19 16:32:32 UTC
671,Yuanqi Senlin,,company,,,https://www.yuanqisenlin.com,,,,,,,,,,,,China,,Biotechnology & Life Sciences,,,,,"{""has_rofr""=>false, ""last_round""=>""Series B - V"", ""caplight_url""=>""https://platform.caplight.com/companies/1d6932af"", ""last_round_date""=>""11/2/2021"", ""valuation_cents""=>1500000000000, ""total_raised_cents""=>20000000000}",0,,[],{},,,,2026-01-19 16:32:32 UTC,2026-01-19 16:32:32 UTC
672,Dunamu,,company,,,https://www.dunamu.com,,,,,,,,,South Korea,,,,,Crypto & Web3,,,,,"{""has_rofr""=>false, ""last_round""=>""Undisclosed"", ""caplight_url""=>""https://platform.caplight.com/companies/3725e033"", ""last_round_date""=>""9/23/2021"", ""valuation_cents""=>1450000000000, ""total_raised_cents""=>8530000000}",0,,[],{},,,,2026-01-19 16:32:32 UTC,2026-01-19 16:32:32 UTC
673,OpenSea,,company,,,https://opensea.io,,,,,,,,,Miami,Florida,,,,Crypto & Web3,,,,,"{""has_rofr""=>false, ""last_round""=>""Series C"", ""caplight_url""=>""https://platform.caplight.com/companies/9411b139"", ""last_round_date""=>""1/4/2022"", ""valuation_cents""=>1330000000000, ""total_raised_cents""=>30000000000}",0,,[],{},,,,2026-01-19 16:32:32 UTC,2026-01-19 16:32:32 UTC
674,Alchemy,,company,,,https://www.alchemy.com,,,,,,,,,San Francisco,,,,,Crypto & Web3,,,,,"{""has_rofr""=>false, ""last_round""=>""Series D"", ""caplight_url""=>""https://platform.caplight.com/companies/54a3ad9b"", ""last_round_date""=>""2/7/2022"", ""valuation_cents""=>1020000000000, ""total_raised_cents""=>20000000000}",0,,[],{},,,,2026-01-19 16:32:32 UTC,2026-01-19 16:32:32 UTC
675,NEAR,,company,,,https://www.near.org,,,,,,,,,San Francisco,,,,,Crypto & Web3,,,,,"{""has_rofr""=>false, ""last_round""=>""VC Round"", ""caplight_url""=>""https://platform.caplight.com/companies/9f168d75"", ""last_round_date""=>""4/6/2022"", ""valuation_cents""=>1000000000000, ""total_raised_cents""=>35000000000}",0,,[],{},,,,2026-01-19 16:32:32 UTC,2026-01-19 16:32:32 UTC
676,KuCoin,,company,,,https://www.kucoin.com,,,,,,,,,Seychelles,,,,,Crypto & Web3,,,,,"{""has_rofr""=>false, ""last_round""=>""Undisclosed"", ""caplight_url""=>""https://platform.caplight.com/companies/f0e0bac3"", ""last_round_date""=>""7/21/2022"", ""valuation_cents""=>1000000000000, ""total_raised_cents""=>1000000000}",0,,[],{},,,,2026-01-19 16:32:32 UTC,2026-01-19 16:32:32 UTC
677,Digital Currency Group,,company,,,https://www.dcg.co,,,,,,,,,Stamford,Connecticut,,,,Crypto & Web3,,,,,"{""has_rofr""=>false, ""last_round""=>""Secondary"", ""caplight_url""=>""https://platform.caplight.com/companies/ef0f60c2"", ""last_round_date""=>""11/1/2021"", ""valuation_cents""=>1000000000000, ""total_raised_cents""=>70000000000}",0,,[],{},,,,2026-01-19 16:32:32 UTC,2026-01-19 16:32:32 UTC
678,Blockchain,,company,,,https://www.blockchain.com,,,,,,,,,United Kingdom,,,,,Crypto & Web3,,,,,"{""has_rofr""=>false, ""last_round""=>""Series E"", ""caplight_url""=>""https://platform.caplight.com/companies/11243c5f"", ""last_round_date""=>""11/14/2023"", ""total_raised_cents""=>11000000000}",0,,[],{},,,,2026-01-19 16:32:32 UTC,2026-01-19 16:32:32 UTC
679,xAI,,company,,,https://www.x.ai,,,,,,,,,Burlingame,,,,,AI & Machine Learning,,,,,"{""has_rofr""=>false, ""last_round""=>""Series D"", ""caplight_url""=>""https://platform.caplight.com/companies/1a08d098"", ""last_round_date""=>""6/30/2025"", ""total_raised_cents""=>424708259300}",0,,[],{},,,,2026-01-19 16:32:32 UTC,2026-01-19 16:32:32 UTC
680,BITMAIN,,company,,,https://www.bitmain.com,,,,,,,,,,,,China,,Fintech,,,,,"{""has_rofr""=>false, ""last_round""=>""Extension"", ""caplight_url""=>""https://platform.caplight.com/companies/21152b4f"", ""last_round_date""=>""1/26/2021"", ""total_raised_cents""=>60000000000}",0,,[],{},,,,2026-01-19 16:32:32 UTC,2026-01-19 16:32:32 UTC
681,BYJU'S,,company,,,https://www.byjus.com,,,,,,,,,,,,India,,Enterprise Software,,,,,"{""has_rofr""=>false, ""last_round""=>""Debt"", ""caplight_url""=>""https://platform.caplight.com/companies/9dc80f43"", ""last_round_date""=>""5/12/2023"", ""total_raised_cents""=>25000000000}",0,,[],{},,,,2026-01-19 16:32:32 UTC,2026-01-19 16:32:32 UTC
682,Genesys,,company,,,https://www.genesys.com,,,,,,,,,Menlo Park,,,,,Data & Cloud Infrastructure,,,,,"{""has_rofr""=>false, ""last_round""=>""Series E"", ""caplight_url""=>""https://platform.caplight.com/companies/348a4ef8"", ""last_round_date""=>""7/31/2025"", ""total_raised_cents""=>150000000000}",0,,[],{},,,,2026-01-19 16:32:32 UTC,2026-01-19 16:32:32 UTC
683,Eleven Labs,,company,,,https://elevenlabs.io/,,,,,,,,,,,,,,AI & Machine Learning,,,,,"{""has_rofr""=>false}",0,,[],{},,,,2026-01-19 16:32:32 UTC,2026-01-19 16:32:32 UTC
684,Fireblocks,,company,,,,,,,,,,,,,,,,,Crypto & Web3,,,,,"{""has_rofr""=>false}",0,,[],{},,,,2026-01-19 16:32:32 UTC,2026-01-19 16:32:32 UTC
685,Petite Ermitage,,company,,,https://www.petitermitage.com/,,,,,,,,,Los Angeles,CA,,,,Hospitality & Leisure,Hotels & Resorts,,,,"{""has_rofr""=>false}",0,,[],{},,,,2026-01-19 16:32:32 UTC,2026-01-19 16:32:32 UTC
686,Groq,,company,,,,,,,,,,,,,,,,,,,,,,"{""has_rofr""=>false}",0,,[],{},,,,2026-01-19 16:32:32 UTC,2026-01-19 16:32:32 UTC
687,Hadrian,,company,,,,,,,,,,,,,,,,,,,,,,"{""has_rofr""=>false}",0,,[],{},,,,2026-01-19 16:32:32 UTC,2026-01-19 16:32:32 UTC
688,Playr1,,company,,,https://playr1.com/,,,,,,,,,,,,,,"Consumer & Retail,E-commerce",DTC Brands,,,,"{""has_rofr""=>false}",0,,[],{},,,,2026-01-19 16:32:32 UTC,2026-01-19 16:32:32 UTC
689,AF Compute,,company,,,,,,,,,,,,,,,,,,,,,,"{""has_rofr""=>false}",0,,[],{},,,,2026-01-19 16:32:32 UTC,2026-01-19 16:32:32 UTC
690,Aspen Labs,,company,,,,,,,,,,,,,,,,,,,,,,"{""has_rofr""=>false}",0,,[],{},,,,2026-01-19 16:32:32 UTC,2026-01-19 16:32:32 UTC
691,Easy Spirits Baking,,company,,,,,,,,,,,,,,,,,,,,,,"{""has_rofr""=>false}",0,,[],{},,,,2026-01-19 16:32:32 UTC,2026-01-19 16:32:32 UTC
692,Naughty Water,,company,,,,,,,,,,,,,,,,,,,,,,"{""has_rofr""=>false}",0,,[],{},,,,2026-01-19 16:32:32 UTC,2026-01-19 16:32:32 UTC
693,Waymo,,company,,,,,,,,,,,,,,,,,,,,,,"{""has_rofr""=>false}",0,,[],{},,,,2026-01-19 16:32:32 UTC,2026-01-19 16:32:32 UTC
694,Caruso,,company,,,,,,,,,,,,,,,,,,,,,,"{""has_rofr""=>false}",0,,[],{},,,,2026-01-19 16:32:32 UTC,2026-01-19 16:32:32 UTC
695,M Card,,company,,,,,,,,,,,,,,,,,,,,,,"{""has_rofr""=>false}",0,,[],{},,,,2026-01-19 16:32:32 UTC,2026-01-19 16:32:32 UTC
